ONEWEB-0008             
1 44059U 19010C   24172.92490813  .00000078  00000+0  17071-3 0  9998
2 44059  87.9101  13.3664 0001662  94.8576 265.2745 13.16594669256168
ONEWEB-0007             
1 44060U 19010D   24172.68732727  .00000036  00000+0  62841-4 0  9996
2 44060  87.9042  43.7800 0002268  83.1660 276.9728 13.15548780255858
ONEWEB-0006             
1 44061U 19010E   24173.14762570  .00000023  00000+0  26840-4 0  9993
2 44061  87.9032  43.6713 0002164  79.8388 280.2986 13.15549966255967
ONEWEB-0011             
1 44062U 19010F   24172.66117954  .00000026  00000+0  36206-4 0  9990
2 44062  87.9036  43.7689 0001883  74.5383 285.5955 13.15549670255897
ONEWEB-0013             
1 45131U 20008A   24173.17148607 -.00000542  00000+0 -16130-2 0  9990
2 45131  87.8623 198.8322 0002788 107.9962 252.1468 13.09378728211811
